NORAD_CAT_ID,OBJECT_NAME,OBJECT_TYPE,EPOCH,MEAN_MOTION,ECCENTRICITY,INCLINATION,RA_OF_ASC_NODE,ARG_OF_PERICENTER,MEAN_ANOMALY,BSTAR,MEAN_MOTION_DOT,MEAN_MOTION_DDOT,TLE_LINE0,TLE_LINE1,TLE_LINE2,SEMIMAJOR_AXIS,PERIOD,APOGEE,PERIGEE,DECAYED
54174.0,STARLINK-5248,PAYLOAD,2023-11-10 20:05:21,15.08853211,0.000138,53.2147,164.0004,88.8244,271.2906,0.00043186,6.594e-05,0.0,0 STARLINK-5248,1 54174U 22141T   23314.83705879  .00006594  00000-0  43186-3 0  9990,2 54174  53.2147 164.0004 0001380  88.8244 271.2906 15.08853211 58325,6917.84,95.437,540.66,538.75,0.0
54174.0,STARLINK-5248,PAYLOAD,2023-11-10 21:40:44,15.08851892,0.0001331,53.2146,163.7031,87.3129,272.8015,0.0003548,5.365e-05,0.0,0 STARLINK-5248,1 54174U 22141T   23314.90329841  .00005365  00000-0  35480-3 0  9992,2 54174  53.2146 163.7031 0001331  87.3129 272.8015 15.08851892 58345,6917.844,95.437,540.63,538.788,0.0
54174.0,STARLINK-5248,PAYLOAD,2023-11-10 23:16:08,15.08852383,0.0001321,53.2145,163.4057,87.1454,272.969,0.00038583,5.86e-05,0.0,0 STARLINK-5248,1 54174U 22141T   23314.96953811  .00005860  00000-0  38583-3 0  9995,2 54174  53.2145 163.4057 0001321  87.1454 272.9690 15.08852383 58354,6917.843,95.437,540.621,538.794,0.0
54174.0,STARLINK-5248,PAYLOAD,2023-11-11 19:56:09,15.08844408,0.0001415,53.2137,159.5397,90.4869,269.6286,0.00029127,4.351e-05,0.0,0 STARLINK-5248,1 54174U 22141T   23315.83066037  .00004351  00000-0  29127-3 0  9995,2 54174  53.2137 159.5397 0001415  90.4869 269.6286 15.08844408 58475,6917.867,95.437,540.711,538.753,0.0
54174.0,STARLINK-5248,PAYLOAD,2023-11-11 21:31:32,15.08841804,0.0001433,53.2135,159.2433,89.4428,270.6728,0.00019986,2.894e-05,0.0,0 STARLINK-5248,1 54174U 22141T   23315.89690065  .00002894  00000-0  19986-3 0  9997,2 54174  53.2135 159.2433 0001433  89.4428 270.6728 15.08841804 58492,6917.875,95.437,540.731,538.749,0.0
54174.0,STARLINK-5248,PAYLOAD,2023-11-12 07:03:51,15.08839061,0.000143,53.2141,157.4553,97.9998,262.1157,9.4721e-05,1.22e-05,0.0,0 STARLINK-5248,1 54174U 22141T   23316.29434163  .00001220  00000-0  94721-4 0  9990,2 54174  53.2141 157.4553 0001430  97.9998 262.1157 15.08839061 58545,6917.883,95.438,540.738,538.759,0.0
54174.0,STARLINK-5248,PAYLOAD,2023-11-12 19:46:56,15.08840841,0.000138,53.2138,155.0769,92.5708,267.5442,0.00015725,2.216e-05,0.0,0 STARLINK-5248,1 54174U 22141T   23316.82426270  .00002216  00000-0  15725-3 0  9991,2 54174  53.2138 155.0769 0001380  92.5708 267.5442 15.08840841 58632,6917.878,95.438,540.697,538.788,0.0
54174.0,STARLINK-5248,PAYLOAD,2023-11-13 06:54:38,15.08845821,0.0001429,53.2145,152.9958,93.0081,267.1074,0.00016494,2.338e-05,0.0,0 STARLINK-5248,1 54174U 22141T   23317.28794043  .00002338  00000-0  16494-3 0  9997,2 54174  53.2145 152.9958 0001429  93.0081 267.1074 15.08845821 58708,6917.863,95.437,540.716,538.739,0.0
54174.0,STARLINK-5248,PAYLOAD,2023-11-13 13:16:10,15.08840586,0.0001491,53.2148,151.8068,97.0555,263.0606,0.00031377,4.709e-05,0.0,0 STARLINK-5248,1 54174U 22141T   23317.55290288  .00004709  00000-0  31377-3 0  9990,2 54174  53.2148 151.8068 0001491  97.0555 263.0606 15.08840586 58732,6917.879,95.438,540.775,538.712,0.0
54174.0,STARLINK-5248,PAYLOAD,2023-11-14 13:06:57,15.08840705,0.0001494,53.2129,147.3465,88.4775,271.6388,9.5709e-05,1.236e-05,0.0,0 STARLINK-5248,1 54174U 22141T   23318.54650200  .00001236  00000-0  95709-4 0  9996,2 54174  53.2129 147.3465 0001494  88.4775 271.6388 15.08840705 58895,6917.878,95.438,540.777,538.71,0.0
54174.0,STARLINK-5248,PAYLOAD,2023-11-14 19:28:30,15.08840872,0.0001516,53.2137,146.1562,92.3947,267.7219,7.5874e-05,9.2e-06,0.0,0 STARLINK-5248,1 54174U 22141T   23318.81146154  .00000920  00000-0  75874-4 0  9994,2 54174  53.2137 146.1562 0001516  92.3947 267.7219 15.08840872 58927,6917.878,95.437,540.791,538.694,0.0
54174.0,STARLINK-5248,PAYLOAD,2023-11-15 19:19:17,15.0883802,0.0001421,53.2106,141.6953,91.8143,268.3012,2.59e-06,-2.47e-06,0.0,0 STARLINK-5248,1 54174U 22141T   23319.80506289 -.00000247  00000-0  25900-5 0  9992,2 54174  53.2106 141.6953 0001421  91.8143 268.3012 15.08838020 59082,6917.886,95.438,540.734,538.768,0.0
54174.0,STARLINK-5248,PAYLOAD,2023-11-15 22:30:04,15.08836489,0.0001585,53.2134,141.1029,96.64,263.4773,1.3836e-05,-6.8e-07,0.0,0 STARLINK-5248,1 54174U 22141T   23319.93754694 -.00000068  00000-0  13836-4 0  9996,2 54174  53.2134 141.1029 0001585  96.6400 263.4773 15.08836489 59090,6917.891,95.438,540.853,538.66,0.0
54174.0,STARLINK-5248,PAYLOAD,2023-11-16 12:48:32,15.08837087,0.000127,53.2149,138.4256,91.8359,268.2779,9.431e-05,1.213e-05,0.0,0 STARLINK-5248,1 54174U 22141T   23320.53370496  .00001213  00000-0  94310-4 0  9996,2 54174  53.2149 138.4256 0001270  91.8359 268.2779 15.08837087 59193,6917.889,95.438,540.633,538.876,0.0
54174.0,STARLINK-5248,PAYLOAD,2023-11-16 19:10:04,15.08839082,0.0001192,53.2138,137.2358,90.5984,269.5145,0.00010857,1.44e-05,0.0,0 STARLINK-5248,1 54174U 22141T   23320.79866371  .00001440  00000-0  10857-3 0  9991,2 54174  53.2138 137.2358 0001192  90.5984 269.5145 15.08839082 59237,6917.883,95.438,540.573,538.924,0.0
54174.0,STARLINK-5248,PAYLOAD,2023-11-17 11:03:56,15.08838403,0.0001364,53.2156,134.263,90.9981,269.1167,9.3369e-05,1.198e-05,0.0,0 STARLINK-5248,1 54174U 22141T   23321.46106626  .00001198  00000-0  93369-4 0  9996,2 54174  53.2156 134.2630 0001364  90.9981 269.1167 15.08838403 59325,6917.885,95.438,540.694,538.807,0.0
54174.0,STARLINK-5248,PAYLOAD,2023-11-18 10:54:43,15.08838462,0.0001372,53.2152,129.8024,89.4408,270.6742,6.781e-05,7.91e-06,0.0,0 STARLINK-5248,1 54174U 22141T   23322.45466832  .00000791  00000-0  67810-4 0  9994,2 54174  53.2152 129.8024 0001372  89.4408 270.6742 15.08838462 59482,6917.885,95.438,540.699,538.801,0.0
54174.0,STARLINK-5248,PAYLOAD,2023-11-18 20:27:02,15.08835427,0.0001351,53.2174,128.0191,89.568,270.5467,2.9706e-06,-2.41e-06,0.0,0 STARLINK-5248,1 54174U 22141T   23322.85211209 -.00000241  00000-0  29706-5 0  9998,2 54174  53.2174 128.0191 0001351  89.5680 270.5467 15.08835427 59540,6917.894,95.438,540.694,538.825,0.0
54174.0,STARLINK-5248,PAYLOAD,2023-11-19 10:45:30,15.08838721,0.0001453,53.2169,125.3413,87.3915,272.7244,6.8877e-05,8.08e-06,0.0,0 STARLINK-5248,1 54174U 22141T   23323.44827041  .00000808  00000-0  68877-4 0  9990,2 54174  53.2169 125.3413 0001453  87.3915 272.7244 15.08838721 59638,6917.884,95.438,540.754,538.744,0.0
54174.0,STARLINK-5248,PAYLOAD,2023-11-19 17:07:02,15.08842042,0.0001257,53.2157,124.1518,88.9164,271.1972,7.2544e-05,8.67e-06,0.0,0 STARLINK-5248,1 54174U 22141T   23323.71322740  .00000867  00000-0  72544-4 0  9997,2 54174  53.2157 124.1518 0001257  88.9164 271.1972 15.08842042 59668,6917.874,95.437,540.609,538.87,0.0
54174.0,STARLINK-5248,PAYLOAD,2023-11-19 20:17:49,15.08842231,0.0001295,53.2154,123.5568,89.1939,270.9201,7.1213e-05,8.46e-06,0.0,0 STARLINK-5248,1 54174U 22141T   23323.84570670  .00000846  00000-0  71213-4 0  9997,2 54174  53.2154 123.5568 0001295  89.1939 270.9201 15.08842231 59693,6917.874,95.437,540.634,538.843,0.0
54174.0,STARLINK-5248,PAYLOAD,2023-11-20 16:57:49,15.08847424,0.000126,53.2161,119.6907,89.4307,270.683,0.00016649,2.363e-05,0.0,0 STARLINK-5248,1 54174U 22141T   23324.70682067  .00002363  00000-0  16649-3 0  9994,2 54174  53.2161 119.6907 0001260  89.4307 270.6830 15.08847424 59827,6917.858,95.437,540.594,538.851,0.0
54174.0,STARLINK-5248,PAYLOAD,2023-11-20 21:43:58,15.08851674,0.0001282,53.2161,118.7986,88.9072,271.2067,0.00019737,2.856e-05,0.0,0 STARLINK-5248,1 54174U 22141T   23324.90553648  .00002856  00000-0  19737-3 0  9996,2 54174  53.2161 118.7986 0001282  88.9072 271.2067 15.08851674 59844,6917.845,95.437,540.597,538.823,0.0
54174.0,STARLINK-5248,PAYLOAD,2023-11-21 10:27:04,15.0884194,0.0001305,53.2159,116.4196,94.8371,265.277,6.9374e-05,8.16e-06,0.0,0 STARLINK-5248,1 54174U 22141T   23325.43546634  .00000816  00000-0  69374-4 0  9999,2 54174  53.2159 116.4196 0001305  94.8371 265.2770 15.08841940 59921,6917.874,95.437,540.642,538.837,0.0
54174.0,STARLINK-5248,PAYLOAD,2023-11-21 13:37:50,15.08844307,0.0001288,53.2159,115.8249,95.8095,264.3044,9.1723e-05,1.172e-05,0.0,0 STARLINK-5248,1 54174U 22141T   23325.56794482  .00001172  00000-0  91723-4 0  9998,2 54174  53.2159 115.8249 0001288  95.8095 264.3044 15.08844307 59954,6917.867,95.437,540.623,538.841,0.0
54174.0,STARLINK-5248,PAYLOAD,2023-11-21 16:48:36,15.08846859,0.0001313,53.2154,115.2301,95.0779,265.0363,0.00010213,1.338e-05,0.0,0 STARLINK-5248,1 54174U 22141T   23325.70042299  .00001338  00000-0  10213-3 0  9994,2 54174  53.2154 115.2301 0001313  95.0779 265.0363 15.08846859 59970,6917.859,95.437,540.633,538.816,0.0
54174.0,STARLINK-5248,PAYLOAD,2023-11-22 13:28:37,15.08848995,0.0001351,53.2153,111.366,84.2142,275.9004,3.7541e-05,3.1e-06,0.0,0 STARLINK-5248,1 54174U 22141T   23326.56154112  .00000310  00000-0  37541-4 0  9990,2 54174  53.2153 111.3660 0001351  84.2142 275.9004 15.08848995 60102,6917.853,95.437,540.652,538.783,0.0
54174.0,STARLINK-5248,PAYLOAD,2023-11-22 16:39:23,15.08850788,0.0001404,53.2152,110.771,85.3673,274.7479,7.3971e-05,8.9e-06,0.0,0 STARLINK-5248,1 54174U 22141T   23326.69401961  .00000890  00000-0  73971-4 0  9991,2 54174  53.2152 110.7710 0001404  85.3673 274.7479 15.08850788 60117,6917.847,95.437,540.684,538.741,0.0
54174.0,STARLINK-5248,PAYLOAD,2023-11-23 10:08:38,15.0883409,0.0001608,53.2155,107.5005,86.8955,273.2221,1.0034e-05,-1.28e-06,0.0,0 STARLINK-5248,1 54174U 22141T   23327.42266903 -.00000128  00000-0  10034-4 0  9994,2 54174  53.2155 107.5005 0001608  86.8955 273.2221 15.08834090 60225,6917.898,95.438,540.876,538.651,0.0
54174.0,STARLINK-5248,PAYLOAD,2023-11-23 13:19:24,15.08836552,0.0001837,53.2168,106.9074,94.0268,266.0934,-0.00017201,-3.024e-05,0.0,0 STARLINK-5248,1 54174U 22141T   23327.55514750 -.00003024  00000-0 -17201-3 0  9995,2 54174  53.2168 106.9074 0001837  94.0268 266.0934 15.08836552 60259,6917.891,95.438,541.027,538.485,0.0
